{"type": "FeatureCollection", "features": [ {"type": "Feature", "properties": {"norad_id": 31378, "name": "FENGYUN 1C DEB", "group": "fengyun-1c-debris", "lat": 74.95268306828119, "lon": -153.85964275728125, "alt_km": 941.434776160826, "timestamp": "2025-12-26T08:37:54.862365+00:00", "meta": {"OBJECT_NAME": "FENGYUN 1C DEB", "OBJECT_ID": "1999-025BSJ", "EPOCH": "2025-12-24T12:44:38.104512", "MEAN_MOTION": 13.80093573, "ECCENTRICITY": 0.01685737, "INCLINATION": 100.7561, "RA_OF_ASC_NODE": 249.0603, "ARG_OF_PERICENTER": 168.0934, "MEAN_ANOMALY": 192.4275, "EPHEMERIS_TYPE": 0, "CLASSIFICATION_TYPE": "U", "NORAD_CAT_ID": 31378, "ELEMENT_SET_NO": 999, "REV_AT_EPOCH": 94386, "BSTAR": 0.00064589916, "MEAN_MOTION_DOT": 6.93e-06, "MEAN_MOTION_DDOT": 0}, "tle": {"line1": "1 31378U 99025BSJ 25358.53099658  .00000693  00000+0  64590-3 0  9999", "line2": "2 31378 100.7561 249.0603 0168573 168.0934 192.4275 13.80093573943868"}}, "geometry": {"type": "Point", "coordinates": [-153.85964275728125, 74.95268306828119]}}, {"type": "Feature", "properties": {"norad_id": 31381, "name": "FENGYUN 1C DEB", "group": "fengyun-1c-debris", "lat": -45.65426806928362, "lon": -105.1973811543622, "alt_km": 854.2333816514856, "timestamp": "2025-12-26T08:37:54.862375+00:00", "meta": {"OBJECT_NAME": "FENGYUN 1C DEB", "OBJECT_ID": "1999-025BSM", "EPOCH": "2025-12-25T11:31:13.278720", "MEAN_MOTION": 14.37075498, "ECCENTRICITY": 0.0197793, "INCLINATION": 98.4914, "RA_OF_ASC_NODE": 82.7259, "ARG_OF_PERICENTER": 353.9152, "MEAN_ANOMALY": 5.9634, "EPHEMERIS_TYPE": 0, "CLASSIFICATION_TYPE": "U", "NORAD_CAT_ID": 31381, "ELEMENT_SET_NO": 999, "REV_AT_EPOCH": 97583, "BSTAR": 0.00034323, "MEAN_MOTION_DOT": 1.225e-05, "MEAN_MOTION_DDOT": 0}, "tle": {"line1": "1 31381U 99025BSM 25359.48001480  .00001225  00000+0  34323-3 0  9997", "line2": "2 31381  98.4914  82.7259 0197793 353.9152   5.9634 14.37075498975837"}}, "geometry": {"type": "Point", "coordinates": [-105.1973811543622, -45.65426806928362]}}, {"type": "Feature", "properties": {"norad_id": 31383, "name": "FENGYUN 1C DEB", "group": "fengyun-1c-debris", "lat": 14.044905526804534, "lon": -115.41067381251099, "alt_km": 905.5747439209799, "timestamp": "2025-12-26T08:37:54.862385+00:00", "meta": {"OBJECT_NAME": "FENGYUN 1C DEB", "OBJECT_ID": "1999-025BSP", "EPOCH": "2025-12-17T10:22:17.465376", "MEAN_MOTION": 14.05711597, "ECCENTRICITY": 0.01077198, "INCLINATION": 99.0662, "RA_OF_ASC_NODE": 53.3693, "ARG_OF_PERICENTER": 304.1704, "MEAN_ANOMALY": 68.9908, "EPHEMERIS_TYPE": 0, "CLASSIFICATION_TYPE": "U", "NORAD_CAT_ID": 31383, "ELEMENT_SET_NO": 999, "REV_AT_EPOCH": 95435, "BSTAR": 0.00049128566, "MEAN_MOTION_DOT": 7.98e-06, "MEAN_MOTION_DDOT": 0}, "tle": {"line1": "1 31383U 99025BSP 25351.43214659  .00000798  00000+0  49129-3 0  9994", "line2": "2 31383  99.0662  53.3693 0107719 304.1704  68.9908 14.05711597954351"}}, "geometry": {"type": "Point", "coordinates": [-115.41067381251099, 14.044905526804534]}}, {"type": "Feature", "properties": {"norad_id": 31384, "name": "FENGYUN 1C DEB", "group": "fengyun-1c-debris", "lat": -13.905091605035578, "lon": -32.7317690455393, "alt_km": 638.773399892113, "timestamp": "2025-12-26T08:37:54.862395+00:00", "meta": {"OBJECT_NAME": "FENGYUN 1C DEB", "OBJECT_ID": "1999-025BSQ", "EPOCH": "2025-12-19T20:55:42.075264", "MEAN_MOTION": 13.86211171, "ECCENTRICITY": 0.04402835, "INCLINATION": 98.4566, "RA_OF_ASC_NODE": 319.2731, "ARG_OF_PERICENTER": 22.0866, "MEAN_ANOMALY": 6.9632, "EPHEMERIS_TYPE": 0, "CLASSIFICATION_TYPE": "U", "NORAD_CAT_ID": 31384, "ELEMENT_SET_NO": 999, "REV_AT_EPOCH": 93123, "BSTAR": 0.0018493976, "MEAN_MOTION_DOT": 4.557e-05, "MEAN_MOTION_DDOT": 0}, "tle": {"line1": "1 31384U 99025BSQ 25353.87201476  .00004557  00000+0  18494-2 0  9995", "line2": "2 31384  98.4566 319.2731 0440283  22.0866   6.9632 13.86211171931235"}}, "geometry": {"type": "Point", "coordinates": [-32.7317690455393, -13.905091605035578]}}, {"type": "Feature", "properties": {"norad_id": 31385, "name": "FENGYUN 1C DEB", "group": "fengyun-1c-debris", "lat": 80.57807968794965, "lon": -16.96657356787013, "alt_km": 716.2624715170732, "timestamp": "2025-12-26T08:37:54.862405+00:00", "meta": {"OBJECT_NAME": "FENGYUN 1C DEB", "OBJECT_ID": "1999-025BSR", "EPOCH": "2025-12-24T00:27:59.984928", "MEAN_MOTION": 14.44009849, "ECCENTRICITY": 0.0134107, "INCLINATION": 98.9532, "RA_OF_ASC_NODE": 88.7608, "ARG_OF_PERICENTER": 22.1757, "MEAN_ANOMALY": 150.7267, "EPHEMERIS_TYPE": 0, "CLASSIFICATION_TYPE": "U", "NORAD_CAT_ID": 31385, "ELEMENT_SET_NO": 999, "REV_AT_EPOCH": 98777, "BSTAR": 0.0001309881, "MEAN_MOTION_DOT": 4.45e-06, "MEAN_MOTION_DDOT": 0}, "tle": {"line1": "1 31385U 99025BSR 25358.01944427  .00000445  00000+0  13099-3 0  9996", "line2": "2 31385  98.9532  88.7608 0134107  22.1757 150.7267 14.44009849987774"}}, "geometry": {"type": "Point", "coordinates": [-16.96657356787013, 80.57807968794965]}}, {"type": "Feature", "properties": {"norad_id": 31386, "name": "FENGYUN 1C DEB", "group": "fengyun-1c-debris", "lat": -5.428276793022529, "lon": -166.88129539324552, "alt_km": 874.6356081673821, "timestamp": "2025-12-26T08:37:54.862415+00:00", "meta": {"OBJECT_NAME": "FENGYUN 1C DEB", "OBJECT_ID": "1999-025BSS", "EPOCH": "2025-12-25T00:32:11.512608", "MEAN_MOTION": 13.86086808, "ECCENTRICITY": 0.01981841, "INCLINATION": 98.4387, "RA_OF_ASC_NODE": 12.7206, "ARG_OF_PERICENTER": 250.6137, "MEAN_ANOMALY": 107.3505, "EPHEMERIS_TYPE": 0, "CLASSIFICATION_TYPE": "U", "NORAD_CAT_ID": 31386, "ELEMENT_SET_NO": 999, "REV_AT_EPOCH": 94032, "BSTAR": 0.0017902957, "MEAN_MOTION_DOT": 2.367e-05, "MEAN_MOTION_DDOT": 0}, "tle": {"line1": "1 31386U 99025BSS 25359.02235547  .00002367  00000+0  17903-2 0  9997", "line2": "2 31386  98.4387  12.7206 0198184 250.6137 107.3505 13.86086808940322"}}, "geometry": {"type": "Point", "coordinates": [-166.88129539324552, -5.428276793022529]}}, {"type": "Feature", "properties": {"norad_id": 31387, "name": "FENGYUN 1C DEB", "group": "fengyun-1c-debris", "lat": 80.49626224513491, "lon": 133.8864275271997, "alt_km": 704.762108241116, "timestamp": "2025-12-26T08:37:54.862425+00:00", "meta": {"OBJECT_NAME": "FENGYUN 1C DEB", "OBJECT_ID": "1999-025BST", "EPOCH": "2025-12-26T03:06:03.552192", "MEAN_MOTION": 14.13581924, "ECCENTRICITY": 0.0242256, "INCLINATION": 99.1675, "RA_OF_ASC_NODE": 238.9388, "ARG_OF_PERICENTER": 133.6146, "MEAN_ANOMALY": 228.5405, "EPHEMERIS_TYPE": 0, "CLASSIFICATION_TYPE": "U", "NORAD_CAT_ID": 31387, "ELEMENT_SET_NO": 999, "REV_AT_EPOCH": 96486, "BSTAR": 0.0001744, "MEAN_MOTION_DOT": 3.87e-06, "MEAN_MOTION_DDOT": 0}, "tle": {"line1": "1 31387U 99025BST 25360.12920778  .00000387  00000+0  17440-3 0  9995", "line2": "2 31387  99.1675 238.9388 0242256 133.6146 228.5405 14.13581924964864"}}, "geometry": {"type": "Point", "coordinates": [133.8864275271997, 80.49626224513491]}}, {"type": "Feature", "properties": {"norad_id": 31388, "name": "FENGYUN 1C DEB", "group": "fengyun-1c-debris", "lat": 12.887920812684976, "lon": -14.05753784046657, "alt_km": 898.6115589871242, "timestamp": "2025-12-26T08:37:54.862434+00:00", "meta": {"OBJECT_NAME": "FENGYUN 1C DEB", "OBJECT_ID": "1999-025BSU", "EPOCH": "2025-12-25T11:06:35.243424", "MEAN_MOTION": 14.07432635, "ECCENTRICITY": 0.0047149, "INCLINATION": 98.8059, "RA_OF_ASC_NODE": 347.1012, "ARG_OF_PERICENTER": 165.0607, "MEAN_ANOMALY": 347.2543, "EPHEMERIS_TYPE": 0, "CLASSIFICATION_TYPE": "U", "NORAD_CAT_ID": 31388, "ELEMENT_SET_NO": 999, "REV_AT_EPOCH": 96620, "BSTAR": 3.2805e-05, "MEAN_MOTION_DOT": 1.3e-07, "MEAN_MOTION_DDOT": 0}, "tle": {"line1": "1 31388U 99025BSU 25359.46290791  .00000013  00000+0  32805-4 0  9995", "line2": "2 31388  98.8059 347.1012 0047149 165.0607 347.2543 14.07432635966208"}}, "geometry": {"type": "Point", "coordinates": [-14.05753784046657, 12.887920812684976]}}, {"type": "Feature", "properties": {"norad_id": 31389, "name": "FENGYUN 1C DEB", "group": "fengyun-1c-debris", "lat": 57.44278398872696, "lon": 152.56690871357205, "alt_km": 682.0510140271781, "timestamp": "2025-12-26T08:37:54.862444+00:00", "meta": {"OBJECT_NAME": "FENGYUN 1C DEB", "OBJECT_ID": "1999-025BSV", "EPOCH": "2025-12-24T10:29:28.135680", "MEAN_MOTION": 14.61514722, "ECCENTRICITY": 0.00275935, "INCLINATION": 99.0416, "RA_OF_ASC_NODE": 164.9088, "ARG_OF_PERICENTER": 153.5559, "MEAN_ANOMALY": 235.6301, "EPHEMERIS_TYPE": 0, "CLASSIFICATION_TYPE": "U", "NORAD_CAT_ID": 31389, "ELEMENT_SET_NO": 999, "REV_AT_EPOCH": 96668, "BSTAR": 0.005016183, "MEAN_MOTION_DOT": 0.00025051, "MEAN_MOTION_DDOT": 0}, "tle": {"line1": "1 31389U 99025BSV 25358.43713120  .00025051  00000+0  50162-2 0  9991", "line2": "2 31389  99.0416 164.9088 0027593 153.5559 235.6301 14.61514722966688"}}, "geometry": {"type": "Point", "coordinates": [152.56690871357205, 57.44278398872696]}}, {"type": "Feature", "properties": {"norad_id": 31410, "name": "FENGYUN 1C DEB", "group": "fengyun-1c-debris", "lat": 64.42536690758848, "lon": 143.48890320054429, "alt_km": 814.8529833661969, "timestamp": "2025-12-26T08:37:54.862455+00:00", "meta": {"OBJECT_NAME": "FENGYUN 1C DEB", "OBJECT_ID": "1999-025BSW", "EPOCH": "2025-12-25T06:19:00.078240", "MEAN_MOTION": 14.44844339, "ECCENTRICITY": 0.0110454, "INCLINATION": 98.837, "RA_OF_ASC_NODE": 161.3187, "ARG_OF_PERICENTER": 249.0798, "MEAN_ANOMALY": 236.9244, "EPHEMERIS_TYPE": 0, "CLASSIFICATION_TYPE": "U", "NORAD_CAT_ID": 31410, "ELEMENT_SET_NO": 999, "REV_AT_EPOCH": 97932, "BSTAR": 0.0010125, "MEAN_MOTION_DOT": 3.743e-05, "MEAN_MOTION_DDOT": 0}, "tle": {"line1": "1 31410U 99025BSW 25359.26319535  .00003743  00000+0  10125-2 0  9999", "line2": "2 31410  98.8370 161.3187 0110454 249.0798 236.9244 14.44844339979321"}}, "geometry": {"type": "Point", "coordinates": [143.48890320054429, 64.42536690758848]}}]}